KUIPER-00567            
1 69626U 26140AL  26188.64925266  .00012733  00000+0  34047-3 0  9993
2 69626  51.8778 299.6117 0012778 239.8856 120.0865 15.38354476  4381
KUIPER-00573            
1 69627U 26140AM  26188.66082413  .00014889  00000+0  41025-3 0  9992
2 69627  51.8783 299.6872 0009419 256.0055 103.9885 15.37310895  4384
KZ-11 R/B               
1 69628U 26138H   26189.10337733  .00679270  96381-5  70920-3 0  9998
2 69628  55.1541 189.3824 0407074 131.7206 231.9404 15.35456886  3154
ZHUQUE-2E DEB           
1 69629U 26128D   26188.56558736  .00201560  00000+0  11398-2 0  9998
2 69629  54.5324 206.7071 0049174  17.8408 342.4343 15.76295846  4395
ZHUQUE-2E DEB           
1 69630U 26128E   26189.06557566  .00011920  00000+0  13808-3 0  9994
2 69630  54.5281 206.1777 0078448  29.2593 331.2797 15.58660728  4433
ZHUQUE-2E DEB           
1 69631U 26128F   26188.61261843  .00179766  00000+0  14449-2 0  9999
2 69631  54.5240 207.6373 0061539  20.4462 339.9016 15.67424881  4378
ZHUQUE-2E DEB           
1 69634U 26128J   26188.48815593  .07030403  11686-4  39749-2 0  9992
2 69634  54.5137 204.7279 0028747  55.3810 304.9951 16.17421222  4289
CENTISPACE-1 GROUP 05 O*
1 69636U 26138J   26188.75663799 -.00000403  00000+0 -12629-3 0  9998
2 69636  55.1385 205.1684 0009061 327.9500  32.0922 14.15844526  2906
VICTUS HAZE PUMA        
1 69646U 26142A   26189.20514316  .00002554  00000+0  11808-3 0  9990
2 69646  97.4475  86.5894 0025188 291.9966  67.8594 15.20813868  2862
HOKUSHIN-1              
1 69648U 98067YH  26188.43161019  .00017670  00000+0  30854-3 0  9996
2 69648  51.6313 199.7545 0006099 301.0821  58.9569 15.50745793  2799
STARLINK-37656          
1 69649U 26143A   26189.08336806 -.01879756  00000+0 -34609-1 0  9997
2 69649  97.2854 232.9031 0001679  67.8254 132.1321 15.52637825  3826
STARLINK-37646          
1 69650U 26143B   26189.08336806 -.02541074  00000+0 -25115-1 0  9991
2 69650  97.2855 233.0160 0002090  63.9960  52.9003 15.69193441  3828
STARLINK-37749          
1 69651U 26143C   26189.08336806 -.02497343  00000+0 -28871-1 0  9993
2 69651  97.2852 233.0196 0002044  71.8183  51.5037 15.65289757  3823
STARLINK-37819          
1 69652U 26143D   26189.08336806 -.02304619  00000+0 -28733-1 0  9994
2 69652  97.2849 233.0013 0001652  69.7640   3.7317 15.63110070  3825
STARLINK-37729          
1 69653U 26143E   26189.16668980 -.00053737  00000+0 -26507-3 0  9994
2 69653  97.2839 233.1451 0000681 183.1429 140.2197 15.82125534  3835
STARLINK-37838          
1 69654U 26143F   26189.08336806 -.02419714  00000+0 -22174-1 0  9992
2 69654  97.2849 233.0327 0002062  60.1265  90.5649 15.71433659  3821
STARLINK-37884          
1 69655U 26143G   26189.08336806 -.02436168  00000+0 -35426-1 0  9999
2 69655  97.2854 233.0006 0001586  65.3087   7.0852 15.59342731  3826
STARLINK-37876          
1 69656U 26143H   26189.08336806 -.02532655  00000+0 -23753-1 0  9998
2 69656  97.2850 233.0374 0001758  76.8957  91.5212 15.70442468  3723
STARLINK-37784          
1 69657U 26143J   26189.08336806 -.02420464  00000+0 -32029-1 0  9999
2 69657  97.2851 233.0074 0001741  64.6538  24.2249 15.61761606  3725
STARLINK-37851          
1 69658U 26143K   26189.08336806 -.02503327  00000+0 -25296-1 0  9998
2 69658  97.2852 233.0421 0002010  91.7435  88.7923 15.68606240  3712
STARLINK-37229          
1 69659U 26143L   26189.08336806 -.02475186  00000+0 -28055-1 0  9996
2 69659  97.2855 233.0151 0001708  63.0421  44.2014 15.65753105  3769
STARLINK-37556          
1 69660U 26143M   26189.08336806 -.00804596  00000+0 -81632-2 0  9998
2 69660  97.2854 233.0213 0001442  80.9360  50.3195 15.67573863  3765
STARLINK-37867          
1 69661U 26143N   26189.08336806 -.02531262  00000+0 -26721-1 0  9995
2 69661  97.2850 233.0442 0002017  81.8958 101.6030 15.67582365  3729
STARLINK-37852          
1 69662U 26143P   26189.16668980 -.02437365  00000+0 -33933-1 0  9998
2 69662  97.2850 233.0829 0002035  77.4874  96.4461 15.60473825  3730
STARLINK-37554          
1 69663U 26143Q   26189.08336806 -.02396901  00000+0 -26164-1 0  9997
2 69663  97.2851 233.0290 0002068  60.0640  84.7797 15.66566898  3763
STARLINK-37830          
1 69664U 26143R   26189.08336806 -.02408377  00000+0 -30284-1 0  9997
2 69664  97.2850 233.0117 0001700  66.3211  34.9190 15.63046557  3717
STARLINK-37837          
1 69665U 26143S   26189.08336806 -.01134653  00000+0 -11338-1 0  9999
2 69665  97.2850 233.0355 0001529  93.7844  71.9971 15.68426231  3722
STARLINK-37943          
1 69666U 26143T   26189.08336806 -.00718063  00000+0 -90530-2 0  9994
2 69666  97.2852 233.0090 0001548  72.2965  22.1626 15.61843373  3726
STARLINK-37941          
1 69667U 26143U   26189.08336806 -.02450757  00000+0 -27110-1 0  9993
2 69667  97.2857 233.0294 0001866  70.7964  71.3356 15.66318561  3720
STARLINK-37930          
1 69668U 26143V   26189.08336806 -.02046411  00000+0 -23375-1 0  9991
2 69668  97.2854 233.0208 0001570  57.1537  68.4496 15.65463463  3712
