OBJECT_NAME,OBJECT_ID,EPOCH,MEAN_MOTION,ECCENTRICITY,INCLINATION,RA_OF_ASC_NODE,ARG_OF_PERICENTER,MEAN_ANOMALY,EPHEMERIS_TYPE,CLASSIFICATION_TYPE,NORAD_CAT_ID,ELEMENT_SET_NO,REV_AT_EPOCH,BSTAR,MEAN_MOTION_DOT,MEAN_MOTION_DDOT
KUIPER-00567,2026-140AL,2026-07-07T15:34:55.429824,15.38354476,.0012778,51.8778,299.6117,239.8856,120.0865,0,U,69626,999,438,.34047E-3,.12733E-3,0
KUIPER-00573,2026-140AM,2026-07-07T15:51:35.204832,15.37310895,.0009419,51.8783,299.6872,256.0055,103.9885,0,U,69627,999,438,.41025E-3,.14889E-3,0
KZ-11 R/B,2026-138H,2026-07-08T02:28:51.801312,15.35456886,.0407074,55.1541,189.3824,131.7206,231.9404,0,U,69628,999,315,.7092E-3,.67927E-2,.96381E-5
ZHUQUE-2E DEB,2026-128D,2026-07-07T13:34:26.747904,15.76295846,.0049174,54.5324,206.7071,17.8408,342.4343,0,U,69629,999,439,.11398E-2,.20156E-2,0
ZHUQUE-2E DEB,2026-128E,2026-07-08T01:34:25.737024,15.58660728,.0078448,54.5281,206.1777,29.2593,331.2797,0,U,69630,999,443,.13808E-3,.1192E-3,0
ZHUQUE-2E DEB,2026-128F,2026-07-07T14:42:10.232352,15.67424881,.0061539,54.5240,207.6373,20.4462,339.9016,0,U,69631,999,437,.14449E-2,.179766E-2,0
ZHUQUE-2E DEB,2026-128J,2026-07-07T11:42:56.672352,16.17421222,.0028747,54.5137,204.7279,55.3810,304.9951,0,U,69634,999,428,.39749E-2,.7030403E-1,.11686E-4
CENTISPACE-1 GROUP 05 OBJECT J,2026-138J,2026-07-07T18:09:33.522336,14.15844526,.0009061,55.1385,205.1684,327.9500,32.0922,0,U,69636,999,290,-.12629E-3,-.403E-5,0
VICTUS HAZE PUMA,2026-142A,2026-07-08T04:55:24.369024,15.20813868,.0025188,97.4475,86.5894,291.9966,67.8594,0,U,69646,999,286,.11808E-3,.2554E-4,0
HOKUSHIN-1,1998-067YH,2026-07-07T10:21:31.120416,15.50745793,.00060998,51.6313,199.7545,301.0821,58.9569,0,U,69648,999,279,.30853726E-3,.1767E-3,0
STARLINK-37656,2026-143A,2026-07-08T02:00:03.000384,15.52637825,.0001679,97.2854,232.9031,67.8254,132.1321,0,U,69649,999,382,-.34609E-1,-.1879756E-1,0
STARLINK-37646,2026-143B,2026-07-08T02:00:03.000384,15.69193441,.000209,97.2855,233.0160,63.9960,52.9003,0,U,69650,999,382,-.25115E-1,-.2541074E-1,0
STARLINK-37749,2026-143C,2026-07-08T02:00:03.000384,15.65289757,.0002044,97.2852,233.0196,71.8183,51.5037,0,U,69651,999,382,-.28871E-1,-.2497343E-1,0
STARLINK-37819,2026-143D,2026-07-08T02:00:03.000384,15.63110070,.0001652,97.2849,233.0013,69.7640,3.7317,0,U,69652,999,382,-.28733E-1,-.2304619E-1,0
STARLINK-37729,2026-143E,2026-07-08T04:00:01.998720,15.82125534,.0000681,97.2839,233.1451,183.1429,140.2197,0,U,69653,999,383,-.26507E-3,-.53737E-3,0
STARLINK-37838,2026-143F,2026-07-08T02:00:03.000384,15.71433659,.0002062,97.2849,233.0327,60.1265,90.5649,0,U,69654,999,382,-.22174E-1,-.2419714E-1,0
STARLINK-37884,2026-143G,2026-07-08T02:00:03.000384,15.59342731,.0001586,97.2854,233.0006,65.3087,7.0852,0,U,69655,999,382,-.35426E-1,-.2436168E-1,0
STARLINK-37876,2026-143H,2026-07-08T02:00:03.000384,15.70442468,.0001758,97.2850,233.0374,76.8957,91.5212,0,U,69656,999,372,-.23753E-1,-.2532655E-1,0
STARLINK-37784,2026-143J,2026-07-08T02:00:03.000384,15.61761606,.0001741,97.2851,233.0074,64.6538,24.2249,0,U,69657,999,372,-.32029E-1,-.2420464E-1,0
STARLINK-37851,2026-143K,2026-07-08T02:00:03.000384,15.68606240,.000201,97.2852,233.0421,91.7435,88.7923,0,U,69658,999,371,-.25296E-1,-.2503327E-1,0
STARLINK-37229,2026-143L,2026-07-08T02:00:03.000384,15.65753105,.0001708,97.2855,233.0151,63.0421,44.2014,0,U,69659,999,376,-.28055E-1,-.2475186E-1,0
STARLINK-37556,2026-143M,2026-07-08T02:00:03.000384,15.67573863,.0001442,97.2854,233.0213,80.9360,50.3195,0,U,69660,999,376,-.81632E-2,-.804596E-2,0
STARLINK-37867,2026-143N,2026-07-08T02:00:03.000384,15.67582365,.0002017,97.2850,233.0442,81.8958,101.6030,0,U,69661,999,372,-.26721E-1,-.2531262E-1,0
STARLINK-37852,2026-143P,2026-07-08T04:00:01.998720,15.60473825,.0002035,97.2850,233.0829,77.4874,96.4461,0,U,69662,999,373,-.33933E-1,-.2437365E-1,0
STARLINK-37554,2026-143Q,2026-07-08T02:00:03.000384,15.66566898,.0002068,97.2851,233.0290,60.0640,84.7797,0,U,69663,999,376,-.26164E-1,-.2396901E-1,0
STARLINK-37830,2026-143R,2026-07-08T02:00:03.000384,15.63046557,.00017,97.2850,233.0117,66.3211,34.9190,0,U,69664,999,371,-.30284E-1,-.2408377E-1,0
STARLINK-37837,2026-143S,2026-07-08T02:00:03.000384,15.68426231,.0001529,97.2850,233.0355,93.7844,71.9971,0,U,69665,999,372,-.11338E-1,-.1134653E-1,0
STARLINK-37943,2026-143T,2026-07-08T02:00:03.000384,15.61843373,.0001548,97.2852,233.0090,72.2965,22.1626,0,U,69666,999,372,-.9053E-2,-.718063E-2,0
STARLINK-37941,2026-143U,2026-07-08T02:00:03.000384,15.66318561,.0001866,97.2857,233.0294,70.7964,71.3356,0,U,69667,999,372,-.2711E-1,-.2450757E-1,0
STARLINK-37930,2026-143V,2026-07-08T02:00:03.000384,15.65463463,.000157,97.2854,233.0208,57.1537,68.4496,0,U,69668,999,371,-.23375E-1,-.2046411E-1,0
